ORBCOMM FM114           
1 41179U 15081A   25353.73288610  .00000234  00000+0  86174-4 0  9998
2 41179  47.0037 130.2732 0001754 111.2864 248.8210 14.58563766531558
ORBCOMM FM119           
1 41180U 15081B   25353.18116044  .00000439  00000+0  12986-3 0  9996
2 41180  47.0014  42.2392 0001448 220.7174 139.3603 14.58512179532721
ORBCOMM FM105           
1 41181U 15081C   25353.49022897  .00000136  00000+0  82886-4 0  9994
2 41181  47.0019  63.8343 0000832  65.8366 294.2601 14.45410098527556
ORBCOMM FM118           
1 41183U 15081E   25353.82573015  .00000399  00000+0  12122-3 0  9992
2 41183  47.0032 129.6327 0003233 276.2968  83.7550 14.58585157531541
ORBCOMM FM112           
1 41184U 15081F   25353.41741370  .00000464  00000+0  13510-3 0  9994
2 41184  47.0000  40.0961 0000696 133.0760 227.0184 14.58589117532702
ORBCOMM FM113           
1 41185U 15081G   25353.53168633  .00000546  00000+0  15255-3 0  9992
2 41185  47.0016  39.9127 0000692 167.4235 192.6668 14.58586014532702
